start=new Date('2021-11-07T00:00:00.000Z').valueOf();
sats=[{"DECAY_DATE":null,"PERIOD":"95.520","LAUNCH_DATE":"2020-04-22","REF_FRAME":"TEME","MEAN_ANOMALY":"241.2875","MEAN_MOTION_DDOT":"0.0000000000000","OBJECT_ID":"2020-025AQ","APOAPSIS":"560.989","ECCENTRICITY":"0.00249680","TLE_LINE1":"1 45569U 20025AQ  21310.39764115  .00551563  00000-0  33443-1 0  9994","TIME_SYSTEM":"UTC","EPOCH":"2021-11-06T09:32:36.195360","SITE":"AFETR","ARG_OF_PERICENTER":"119.0619","CLASSIFICATION_TYPE":"U","ELEMENT_SET_NO":"999","SEMIMAJOR_AXIS":"6921.842","OBJECT_NAME":"STARLINK-1366","BSTAR":"0.03344300000000","EPHEMERIS_TYPE":"0","RA_OF_ASC_NODE":"358.7825","MEAN_MOTION_DOT":"0.00551563","TLE_LINE2":"2 45569  53.0540 358.7825 0024968 119.0619 241.2875 15.07544914 86577","CENTER_NAME":"EARTH","FILE":"3206165","COUNTRY_CODE":"US","REV_AT_EPOCH":"8657","MEAN_ELEMENT_THEORY":"SGP4","PERIAPSIS":"526.424","MEAN_MOTION":"15.07544914","INCLINATION":"53.0540","OBJECT_TYPE":"PAYLOAD","RCS_SIZE":"LARGE","NORAD_CAT_ID":"45569","GP_ID":"189129415"},{"RA_OF_ASC_NODE":"358.2225","EPHEMERIS_TYPE":"0","TLE_LINE2":"2 45570  53.0538 358.2225 0001455  80.2583 279.8570 15.06366030 86591","MEAN_MOTION_DOT":"-0.00019001","CENTER_NAME":"EARTH","FILE":"3206165","COUNTRY_CODE":"US","REV_AT_EPOCH":"8659","MEAN_ELEMENT_THEORY":"SGP4","PERIAPSIS":"546.310","ELEMENT_SET_NO":"999","SEMIMAJOR_AXIS":"6925.453","OBJECT_NAME":"STARLINK-1376","BSTAR":"-0.00126130000000","RCS_SIZE":"LARGE","NORAD_CAT_ID":"45570","GP_ID":"189129166","MEAN_MOTION":"15.06366030","INCLINATION":"53.0538","OBJECT_TYPE":"PAYLOAD","MEAN_MOTION_DDOT":"0.0000000000000","OBJECT_ID":"2020-025AR","PERIOD":"95.594","DECAY_DATE":null,"LAUNCH_DATE":"2020-04-22","REF_FRAME":"TEME","MEAN_ANOMALY":"279.8570","ARG_OF_PERICENTER":"80.2583","CLASSIFICATION_TYPE":"U","APOAPSIS":"548.325","ECCENTRICITY":"0.00014550","TLE_LINE1":"1 45570U 20025AR  21310.52324503 -.00019001  00000-0 -12613-2 0  9999","EPOCH":"2021-11-06T12:33:28.370592","TIME_SYSTEM":"UTC","SITE":"AFETR"},{"MEAN_MOTION_DDOT":"0.0000000000000","OBJECT_ID":"2020-025AS","DECAY_DATE":null,"LAUNCH_DATE":"2020-04-22","PERIOD":"95.597","REF_FRAME":"TEME","MEAN_ANOMALY":"277.4353","CLASSIFICATION_TYPE":"U","ARG_OF_PERICENTER":"82.6791","ECCENTRICITY":"0.00013670","TLE_LINE1":"1 45571U 20025AS  21310.53897029 -.00013060  00000-0 -86114-3 0  9996","APOAPSIS":"548.376","SITE":"AFETR","EPOCH":"2021-11-06T12:56:07.033056","TIME_SYSTEM":"UTC","MEAN_MOTION_DOT":"-0.00013060","TLE_LINE2":"2 45571  53.0550 348.1601 0001367  82.6791 277.4353 15.06329608 86752","CENTER_NAME":"EARTH","EPHEMERIS_TYPE":"0","RA_OF_ASC_NODE":"348.1601","MEAN_ELEMENT_THEORY":"SGP4","PERIAPSIS":"546.483","FILE":"3206165","COUNTRY_CODE":"US","REV_AT_EPOCH":"8675","ELEMENT_SET_NO":"999","SEMIMAJOR_AXIS":"6925.564","OBJECT_NAME":"STARLINK-1261","BSTAR":"-0.00086114000000","GP_ID":"189128414","RCS_SIZE":"LARGE","NORAD_CAT_ID":"45571","MEAN_MOTION":"15.06329608","OBJECT_TYPE":"PAYLOAD","INCLINATION":"53.0550"},{"BSTAR":"-0.00061974000000","ELEMENT_SET_NO":"999","SEMIMAJOR_AXIS":"6925.456","OBJECT_NAME":"STARLINK-1320","FILE":"3206165","COUNTRY_CODE":"US","REV_AT_EPOCH":"8674","MEAN_ELEMENT_THEORY":"SGP4","PERIAPSIS":"546.318","EPHEMERIS_TYPE":"0","RA_OF_ASC_NODE":"348.1927","TLE_LINE2":"2 45572  53.0556 348.1927 0001449  75.4963 284.6186 15.06364832 86743","MEAN_MOTION_DOT":"-0.00009492","CENTER_NAME":"EARTH","INCLINATION":"53.0556","OBJECT_TYPE":"PAYLOAD","MEAN_MOTION":"15.06364832","NORAD_CAT_ID":"45572","RCS_SIZE":"LARGE","GP_ID":"189128664","LAUNCH_DATE":"2020-04-22","DECAY_DATE":null,"PERIOD":"95.594","REF_FRAME":"TEME","MEAN_ANOMALY":"284.6186","OBJECT_ID":"2020-025AT","MEAN_MOTION_DDOT":"0.0000000000000","TIME_SYSTEM":"UTC","EPOCH":"2021-11-06T12:45:25.532928","SITE":"AFETR","APOAPSIS":"548.325","ECCENTRICITY":"0.00014490","TLE_LINE1":"1 45572U 20025AT  21310.53154552 -.00009492  00000-0 -61974-3 0  9995","ARG_OF_PERICENTER":"75.4963","CLASSIFICATION_TYPE":"U"},{"CLASSIFICATION_TYPE":"U","ARG_OF_PERICENTER":"82.7303","EPOCH":"2021-11-06T12:13:34.174848","TIME_SYSTEM":"UTC","SITE":"AFETR","APOAPSIS":"548.277","ECCENTRICITY":"0.00013690","TLE_LINE1":"1 45573U 20025AU  21310.50942332 -.00021972  00000-0 -14622-2 0  9998","OBJECT_ID":"2020-025AU","MEAN_MOTION_DDOT":"0.0000000000000","DECAY_DATE":null,"REF_FRAME":"TEME","LAUNCH_DATE":"2020-04-22","PERIOD":"95.595","MEAN_ANOMALY":"277.3841","RCS_SIZE":"LARGE","NORAD_CAT_ID":"45573","GP_ID":"189098942","INCLINATION":"53.0541","OBJECT_TYPE":"PAYLOAD","MEAN_MOTION":"15.06362256","FILE":"3205712","COUNTRY_CODE":"US","REV_AT_EPOCH":"8613","MEAN_ELEMENT_THEORY":"SGP4","PERIAPSIS":"546.381","EPHEMERIS_TYPE":"0","RA_OF_ASC_NODE":"348.2844","TLE_LINE2":"2 45573  53.0541 348.2844 0001369  82.7303 277.3841 15.06362256 86135","MEAN_MOTION_DOT":"-0.00021972","CENTER_NAME":"EARTH","BSTAR":"-0.00146220000000","ELEMENT_SET_NO":"999","SEMIMAJOR_AXIS":"6925.464","OBJECT_NAME":"STARLINK-1321"},{"RCS_SIZE":"LARGE","NORAD_CAT_ID":"45574","GP_ID":"189098934","MEAN_MOTION":"15.06326478","INCLINATION":"53.0548","OBJECT_TYPE":"PAYLOAD","EPHEMERIS_TYPE":"0","RA_OF_ASC_NODE":"346.9812","CENTER_NAME":"EARTH","TLE_LINE2":"2 45574  53.0548 346.9812 0001144  88.0229 272.0891 15.06326478 86188","MEAN_MOTION_DOT":"-0.00019426","REV_AT_EPOCH":"8618","COUNTRY_CODE":"US","FILE":"3205711","PERIAPSIS":"546.647","MEAN_ELEMENT_THEORY":"SGP4","OBJECT_NAME":"STARLINK-1324","ELEMENT_SET_NO":"999","SEMIMAJOR_AXIS":"6925.574","BSTAR":"-0.00129140000000","ARG_OF_PERICENTER":"88.0229","CLASSIFICATION_TYPE":"U","APOAPSIS":"548.231","TLE_LINE1":"1 45574U 20025AV  21310.80063840 -.00019426  00000-0 -12914-2 0  9993","ECCENTRICITY":"0.00011440","TIME_SYSTEM":"UTC","EPOCH":"2021-11-06T19:12:55.157760","SITE":"AFETR","MEAN_MOTION_DDOT":"0.0000000000000","OBJECT_ID":"2020-025AV","MEAN_ANOMALY":"272.0891","PERIOD":"95.597","DECAY_DATE":null,"LAUNCH_DATE":"2020-04-22","REF_FRAME":"TEME"},{"LAUNCH_DATE":"2020-04-22","DECAY_DATE":null,"PERIOD":"95.465","REF_FRAME":"TEME","MEAN_ANOMALY":"273.2448","OBJECT_ID":"2020-025AW","MEAN_MOTION_DDOT":"0.0000000000000","TIME_SYSTEM":"UTC","EPOCH":"2021-11-06T09:55:34.723776","SITE":"AFETR","APOAPSIS":"541.888","ECCENTRICITY":"0.00012060","TLE_LINE1":"1 45575U 20025AW  21310.41359634  .00006703  00000-0  44386-3 0  9991","CLASSIFICATION_TYPE":"U","ARG_OF_PERICENTER":"86.8679","BSTAR":"0.00044386000000","ELEMENT_SET_NO":"999","SEMIMAJOR_AXIS":"6919.188","OBJECT_NAME":"STARLINK-1326","FILE":"3206165","REV_AT_EPOCH":"8676","COUNTRY_CODE":"US","MEAN_ELEMENT_THEORY":"SGP4","PERIAPSIS":"540.219","RA_OF_ASC_NODE":"345.0733","EPHEMERIS_TYPE":"0","MEAN_MOTION_DOT":"0.00006703","TLE_LINE2":"2 45575  53.0014 345.0733 0001206  86.8679 273.2448 15.08412232 86764","CENTER_NAME":"EARTH","INCLINATION":"53.0014","OBJECT_TYPE":"PAYLOAD","MEAN_MOTION":"15.08412232","NORAD_CAT_ID":"45575","RCS_SIZE":"LARGE","GP_ID":"189127915"},{"BSTAR":"-0.00163500000000","ELEMENT_SET_NO":"999","SEMIMAJOR_AXIS":"6925.445","OBJECT_NAME":"STARLINK-1328","FILE":"3206165","COUNTRY_CODE":"US","REV_AT_EPOCH":"8674","MEAN_ELEMENT_THEORY":"SGP4","PERIAPSIS":"546.229","EPHEMERIS_TYPE":"0","RA_OF_ASC_NODE":"348.3497","TLE_LINE2":"2 45576  53.0533 348.3497 0001561  83.7402 276.3765 15.06368496 86742","MEAN_MOTION_DOT":"-0.00024531","CENTER_NAME":"EARTH","INCLINATION":"53.0533","OBJECT_TYPE":"PAYLOAD","MEAN_MOTION":"15.06368496","NORAD_CAT_ID":"45576","RCS_SIZE":"LARGE","GP_ID":"189128165","LAUNCH_DATE":"2020-04-22","DECAY_DATE":null,"PERIOD":"95.594","REF_FRAME":"TEME","MEAN_ANOMALY":"276.3765","OBJECT_ID":"2020-025AX","MEAN_MOTION_DDOT":"0.0000000000000","EPOCH":"2021-11-06T11:52:20.378784","TIME_SYSTEM":"UTC","SITE":"AFETR","APOAPSIS":"548.391","ECCENTRICITY":"0.00015610","TLE_LINE1":"1 45576U 20025AX  21310.49468031 -.00024531  00000-0 -16350-2 0  9992","ARG_OF_PERICENTER":"83.7402","CLASSIFICATION_TYPE":"U"},{"INCLINATION":"53.0531","OBJECT_TYPE":"PAYLOAD","MEAN_MOTION":"15.06388564","RCS_SIZE":"LARGE","NORAD_CAT_ID":"45577","GP_ID":"189129416","BSTAR":"0.00025171000000","SEMIMAJOR_AXIS":"6925.384","ELEMENT_SET_NO":"999","OBJECT_NAME":"STARLINK-1330","FILE":"3206165","COUNTRY_CODE":"US","REV_AT_EPOCH":"8673","MEAN_ELEMENT_THEORY":"SGP4","PERIAPSIS":"546.363","RA_OF_ASC_NODE":"348.2584","EPHEMERIS_TYPE":"0","TLE_LINE2":"2 45577  53.0531 348.2584 0001279  71.0139 289.0988 15.06388564 86735","MEAN_MOTION_DOT":"0.00003469","CENTER_NAME":"EARTH","TIME_SYSTEM":"UTC","EPOCH":"2021-11-06T12:24:11.775744","SITE":"AFETR","APOAPSIS":"548.134","ECCENTRICITY":"0.00012790","TLE_LINE1":"1 45577U 20025AY  21310.51680296  .00003469  00000-0  25171-3 0  9992","ARG_OF_PERICENTER":"71.0139","CLASSIFICATION_TYPE":"U","PERIOD":"95.593","DECAY_DATE":null,"LAUNCH_DATE":"2020-04-22","REF_FRAME":"TEME","MEAN_ANOMALY":"289.0988","OBJECT_ID":"2020-025AY","MEAN_MOTION_DDOT":"0.0000000000000"},{"OBJECT_TYPE":"PAYLOAD","INCLINATION":"53.0547","MEAN_MOTION":"15.06343551","GP_ID":"189100114","NORAD_CAT_ID":"45578","RCS_SIZE":"LARGE","BSTAR":"-0.00207300000000","OBJECT_NAME":"STARLINK-1331","ELEMENT_SET_NO":"999","SEMIMAJOR_AXIS":"6925.522","PERIAPSIS":"546.670","MEAN_ELEMENT_THEORY":"SGP4","REV_AT_EPOCH":"8615","COUNTRY_CODE":"US","FILE":"3205736","CENTER_NAME":"EARTH","TLE_LINE2":"2 45578  53.0547 347.7928 0001034  78.8991 281.2114 15.06343551 86157","MEAN_MOTION_DOT":"-0.00030977","EPHEMERIS_TYPE":"0","RA_OF_ASC_NODE":"347.7928","SITE":"AFETR","EPOCH":"2021-11-06T14:52:48.069120","TIME_SYSTEM":"UTC","TLE_LINE1":"1 45578U 20025AZ  21310.62000080 -.00030977  00000-0 -20730-2 0  9993","ECCENTRICITY":"0.00010340","APOAPSIS":"548.103","CLASSIFICATION_TYPE":"U","ARG_OF_PERICENTER":"78.8991","MEAN_ANOMALY":"281.2114","DECAY_DATE":null,"PERIOD":"95.596","LAUNCH_DATE":"2020-04-22","REF_FRAME":"TEME","OBJECT_ID":"2020-025AZ","MEAN_MOTION_DDOT":"0.0000000000000"}];
